[{"OBJECT_NAME":"STARLINK-36716","OBJECT_ID":"2026-025G","EPOCH":"2026-03-09T19:40:52.936032","MEAN_MOTION":15.75199343,"ECCENTRICITY":0.00021365,"INCLINATION":97.2827,"RA_OF_ASC_NODE":180.4527,"ARG_OF_PERICENTER":62.9251,"MEAN_ANOMALY":297.2232,"EPHEMERIS_TYPE":0,"CLASSIFICATION_TYPE":"U","NORAD_CAT_ID":67699,"ELEMENT_SET_NO":999,"REV_AT_EPOCH":597,"BSTAR":0.0015392519,"MEAN_MOTION_DOT":0.00236019,"MEAN_MOTION_DDOT":0},{"OBJECT_NAME":"JIELONG-3 R\/B","OBJECT_ID":"2023-190C","EPOCH":"2026-03-09T21:26:26.113920","MEAN_MOTION":15.18151254,"ECCENTRICITY":0.02497151,"INCLINATION":86.5597,"RA_OF_ASC_NODE":295.7177,"ARG_OF_PERICENTER":271.8036,"MEAN_ANOMALY":85.4623,"EPHEMERIS_TYPE":0,"CLASSIFICATION_TYPE":"U","NORAD_CAT_ID":58507,"ELEMENT_SET_NO":999,"REV_AT_EPOCH":12333,"BSTAR":0.00045620602,"MEAN_MOTION_DOT":0.00021606,"MEAN_MOTION_DDOT":0}]
